ORBCOMM FM25 [-]        
1 25479U 98053E   24095.95673160  .00001079  00000+0  42082-3 0  9994
2 25479  45.0071 180.9220 0005432 222.1469 137.8961 14.35442575334711
ORBCOMM FM26 [-]        
1 25480U 98053F   24095.94981238  .00000900  00000+0  36270-3 0  9997
2 25480  45.0064 174.9269 0007622 236.3389 123.6732 14.34913283334753
ORBCOMM FM27 [+]        
1 25481U 98053G   24096.22283303  .00001177  00000+0  45469-3 0  9995
2 25481  45.0053 179.9303 0001804 252.5242 107.5408 14.35423798334726
ORBCOMM FM30 [-]        
1 25980U 99065A   24095.98484071  .00001126  00000+0  44043-3 0  9991
2 25980  45.0336   0.2559 0006917 336.1262  23.9264 14.35056952271987
ORBCOMM FM31 [-]        
1 25981U 99065B   24095.81122869  .00001012  00000+0  40089-3 0  9998
2 25981  45.0249 354.7928 0004055 357.2974   2.7851 14.35060983270988
ORBCOMM FM32 [+]        
1 25982U 99065C   24095.83679002  .00001058  00000+0  42512-3 0  9990
2 25982  45.0179   8.2185 0006602 357.4793   2.6019 14.34032250271620
